OKEAN-3                 
1 21397U 91039A   25310.88701964  .00005383  00000+0  38943-3 0  9996
2 21397  82.5153  95.7382 0015224  32.3159 327.8996 15.03745646846574
COSMOS 2151             
1 21422U 91042A   25311.12472255  .00002793  00000+0  22512-3 0  9992
2 21422  82.4992 201.8144 0014018 110.0349 250.2385 14.99490410844821
SL-14 R/B               
1 21423U 91042B   25311.12560728  .00000528  00000+0  64050-4 0  9994
2 21423  82.4926 335.1248 0015511 285.3602  74.5898 14.81689254834925
ERS-1                   
1 21574U 91050A   25311.00566531  .00000411  00000+0  14648-3 0  9993
2 21574  98.7926 321.1629 0031556 204.5084 155.4604 14.39321761798083
ARIANE 40 R/B           
1 21610U 91050F   25311.14030090  .00000478  00000+0  15593-3 0  9998
2 21610  98.2218   2.8471 0004351  88.7993 271.3696 14.42765617801322
INTERCOSMOS 25          
1 21819U 91086A   25310.72033500  .00001748  00000+0  33947-3 0  9994
2 21819  82.6093  24.3458 1488640  22.0279 343.8454 12.11571369481796
SL-8 R/B                
1 21876U 92008B   25311.19281502  .00000130  00000+0  11741-3 0  9993
2 21876  82.9292 358.8861 0036022 116.0469 304.1222 13.75947992692576
SL-8 R/B                
1 21938U 92020B   25310.75122278  .00000062  00000+0  49223-4 0  9992
2 21938  82.9302 245.0397 0027669 282.0480  87.4453 13.75520385684236
USA 81                  
1 21949U 92023A   25311.12590462  .00000262  00000+0  89809-4 0  9999
2 21949  85.0116 202.1098 0002739  80.9443 279.2060 14.32306793 77243
COSMOS 2219             
1 22219U 92076A   25311.14278030  .00000260  00000+0  16107-3 0  9992
2 22219  71.0603 274.2411 0017287  20.4090 339.7719 14.14062720701055
SL-16 R/B               
1 22220U 92076B   25310.79855512  .00000259  00000+0  15316-3 0  9999
2 22220  70.9991  87.2373 0015102 280.7329 228.0020 14.16833334704422
COSMOS 2221             
1 22236U 92080A   25310.69077790  .00003155  00000+0  28197-3 0  9993
2 22236  82.5073  36.8177 0013315 242.8647 117.1217 14.95543144762409
